[{"OBJECT_NAME":"TIANMU-1 09","OBJECT_ID":"2023-101C","EPOCH":"2026-03-09T22:17:34.703232","MEAN_MOTION":15.29080822,"ECCENTRICITY":0.00049013,"INCLINATION":97.267,"RA_OF_ASC_NODE":121.1263,"ARG_OF_PERICENTER":139.4293,"MEAN_ANOMALY":220.7314,"EPHEMERIS_TYPE":0,"CLASSIFICATION_TYPE":"U","NORAD_CAT_ID":57401,"ELEMENT_SET_NO":999,"REV_AT_EPOCH":14647,"BSTAR":0.00030540035,"MEAN_MOTION_DOT":8.553e-5,"MEAN_MOTION_DDOT":0},{"OBJECT_NAME":"STARLINK-35681","OBJECT_ID":"2025-257R","EPOCH":"2026-03-09T20:59:54.384000","MEAN_MOTION":15.30207482,"ECCENTRICITY":0.00010462,"INCLINATION":53.1594,"RA_OF_ASC_NODE":216.0335,"ARG_OF_PERICENTER":69.6363,"MEAN_ANOMALY":290.475,"EPHEMERIS_TYPE":0,"CLASSIFICATION_TYPE":"U","NORAD_CAT_ID":66395,"ELEMENT_SET_NO":999,"REV_AT_EPOCH":1968,"BSTAR":0.0010242076,"MEAN_MOTION_DOT":0.00030105,"MEAN_MOTION_DDOT":0}]
